{
  "type": "FeatureCollection",
  "features": [
    {
      "type": "Feature",
      "properties": {
        "norad_id": 34492,
        "name": "IRIDIUM 33 DEB",
        "group": "iridium-33-debris",
        "lat": -73.55591531543799,
        "lon": 162.04517768695703,
        "alt_km": 729.6892377736222,
        "timestamp": "2025-12-24T05:51:19.994257+00:00",
        "meta_object_name": "IRIDIUM 33 DEB",
        "meta_object_id": "1997-051GH",
        "meta_epoch": "2025-12-22T16:27:23.909760",
        "meta_mean_motion": 14.25892201,
        "meta_eccentricity": 0.01887746,
        "meta_inclination": 86.4712,
        "meta_ra_of_asc_node": 330.6072,
        "meta_arg_of_pericenter": 205.8586,
        "meta_mean_anomaly": 332.2477,
        "meta_ephemeris_type": 0,
        "meta_classification_type": "U",
        "meta_norad_cat_id": 34492,
        "meta_element_set_no": 999,
        "meta_rev_at_epoch": 85200,
        "meta_bstar": 0.0029608099,
        "meta_mean_motion_dot": 8.523e-05,
        "meta_mean_motion_ddot": 0,
        "tle_line1": "1 34492U 97051GH  25356.68569340  .00008523  00000+0  29608-2 0  9990",
        "tle_line2": "2 34492  86.4712 330.6072 0188774 205.8586 332.2477 14.25892201852009"
      },
      "geometry": {
        "type": "Point",
        "coordinates": [
          162.04517768695703,
          -73.55591531543799
        ]
      }
    },
    {
      "type": "Feature",
      "properties": {
        "norad_id": 34497,
        "name": "IRIDIUM 33 DEB",
        "group": "iridium-33-debris",
        "lat": -17.596325671314563,
        "lon": -131.33002004367975,
        "alt_km": 818.7053490598964,
        "timestamp": "2025-12-24T05:51:19.994267+00:00",
        "meta_object_name": "IRIDIUM 33 DEB",
        "meta_object_id": "1997-051GN",
        "meta_epoch": "2025-12-22T21:33:03.136608",
        "meta_mean_motion": 14.27482363,
        "meta_eccentricity": 0.00780484,
        "meta_inclination": 86.2769,
        "meta_ra_of_asc_node": 48.0617,
        "meta_arg_of_pericenter": 306.2683,
        "meta_mean_anomaly": 179.2919,
        "meta_ephemeris_type": 0,
        "meta_classification_type": "U",
        "meta_norad_cat_id": 34497,
        "meta_element_set_no": 999,
        "meta_rev_at_epoch": 87028,
        "meta_bstar": 0.00056228088,
        "meta_mean_motion_dot": 1.443e-05,
        "meta_mean_motion_ddot": 0,
        "tle_line1": "1 34497U 97051GN  25356.89795297  .00001443  00000+0  56228-3 0  9993",
        "tle_line2": "2 34497  86.2769  48.0617 0078048 306.2683 179.2919 14.27482363870281"
      },
      "geometry": {
        "type": "Point",
        "coordinates": [
          -131.33002004367975,
          -17.596325671314563
        ]
      }
    },
    {
      "type": "Feature",
      "properties": {
        "norad_id": 34508,
        "name": "IRIDIUM 33 DEB",
        "group": "iridium-33-debris",
        "lat": 86.29062179262903,
        "lon": -160.48268562579003,
        "alt_km": 722.2674257844583,
        "timestamp": "2025-12-24T05:51:19.994277+00:00",
        "meta_object_name": "IRIDIUM 33 DEB",
        "meta_object_id": "1997-051GZ",
        "meta_epoch": "2025-12-23T06:03:45.637920",
        "meta_mean_motion": 14.38502292,
        "meta_eccentricity": 0.00666476,
        "meta_inclination": 86.3705,
        "meta_ra_of_asc_node": 98.1866,
        "meta_arg_of_pericenter": 139.2389,
        "meta_mean_anomaly": 221.3824,
        "meta_ephemeris_type": 0,
        "meta_classification_type": "U",
        "meta_norad_cat_id": 34508,
        "meta_element_set_no": 999,
        "meta_rev_at_epoch": 87460,
        "meta_bstar": 0.0011996031,
        "meta_mean_motion_dot": 3.78e-05,
        "meta_mean_motion_ddot": 0,
        "tle_line1": "1 34508U 97051GZ  25357.25261155  .00003780  00000+0  11996-2 0  9996",
        "tle_line2": "2 34508  86.3705  98.1866 0066647 139.2389 221.3824 14.38502292874606"
      },
      "geometry": {
        "type": "Point",
        "coordinates": [
          -160.48268562579003,
          86.29062179262903
        ]
      }
    },
    {
      "type": "Feature",
      "properties": {
        "norad_id": 34521,
        "name": "IRIDIUM 33 DEB",
        "group": "iridium-33-debris",
        "lat": -40.56871658957725,
        "lon": -151.4095059069337,
        "alt_km": 687.3920381804746,
        "timestamp": "2025-12-24T05:51:19.994287+00:00",
        "meta_object_name": "IRIDIUM 33 DEB",
        "meta_object_id": "1997-051HN",
        "meta_epoch": "2025-12-23T12:26:26.164032",
        "meta_mean_motion": 14.63450821,
        "meta_eccentricity": 0.00029384,
        "meta_inclination": 86.3785,
        "meta_ra_of_asc_node": 25.8017,
        "meta_arg_of_pericenter": 171.2087,
        "meta_mean_anomaly": 188.9177,
        "meta_ephemeris_type": 0,
        "meta_classification_type": "U",
        "meta_norad_cat_id": 34521,
        "meta_element_set_no": 999,
        "meta_rev_at_epoch": 88630,
        "meta_bstar": 0.0008546766,
        "meta_mean_motion_dot": 4.445e-05,
        "meta_mean_motion_ddot": 0,
        "tle_line1": "1 34521U 97051HN  25357.51835838  .00004445  00000+0  85468-3 0  9990",
        "tle_line2": "2 34521  86.3785  25.8017 0002938 171.2087 188.9177 14.63450821886305"
      },
      "geometry": {
        "type": "Point",
        "coordinates": [
          -151.4095059069337,
          -40.56871658957725
        ]
      }
    },
    {
      "type": "Feature",
      "properties": {
        "norad_id": 34525,
        "name": "IRIDIUM 33 DEB",
        "group": "iridium-33-debris",
        "lat": -85.83841393457989,
        "lon": -18.762378495959954,
        "alt_km": 760.4026712603054,
        "timestamp": "2025-12-24T05:51:19.994296+00:00",
        "meta_object_name": "IRIDIUM 33 DEB",
        "meta_object_id": "1997-051HS",
        "meta_epoch": "2025-12-23T21:05:41.274816",
        "meta_mean_motion": 14.42930782,
        "meta_eccentricity": 0.00063075,
        "meta_inclination": 86.3718,
        "meta_ra_of_asc_node": 42.0888,
        "meta_arg_of_pericenter": 69.4746,
        "meta_mean_anomaly": 107.6275,
        "meta_ephemeris_type": 0,
        "meta_classification_type": "U",
        "meta_norad_cat_id": 34525,
        "meta_element_set_no": 999,
        "meta_rev_at_epoch": 88248,
        "meta_bstar": 0.00032590431,
        "meta_mean_motion_dot": 1.109e-05,
        "meta_mean_motion_ddot": 0,
        "tle_line1": "1 34525U 97051HS  25357.87894994  .00001109  00000+0  32590-3 0  9993",
        "tle_line2": "2 34525  86.3718  42.0888 0006307  69.4746 107.6275 14.42930782882484"
      },
      "geometry": {
        "type": "Point",
        "coordinates": [
          -18.762378495959954,
          -85.83841393457989
        ]
      }
    },
    {
      "type": "Feature",
      "properties": {
        "norad_id": 34529,
        "name": "IRIDIUM 33 DEB",
        "group": "iridium-33-debris",
        "lat": 71.35993731483013,
        "lon": 41.37578830035623,
        "alt_km": 748.306673747773,
        "timestamp": "2025-12-24T05:51:19.994307+00:00",
        "meta_object_name": "IRIDIUM 33 DEB",
        "meta_object_id": "1997-051HW",
        "meta_epoch": "2025-12-23T12:51:13.501152",
        "meta_mean_motion": 14.4062425,
        "meta_eccentricity": 0.0006028,
        "meta_inclination": 86.363,
        "meta_ra_of_asc_node": 30.809,
        "meta_arg_of_pericenter": 146.0687,
        "meta_mean_anomaly": 214.0899,
        "meta_ephemeris_type": 0,
        "meta_classification_type": "U",
        "meta_norad_cat_id": 34529,
        "meta_element_set_no": 999,
        "meta_rev_at_epoch": 88297,
        "meta_bstar": 0.00011429374,
        "meta_mean_motion_dot": 3.84e-06,
        "meta_mean_motion_ddot": 0,
        "tle_line1": "1 34529U 97051HW  25357.53557293  .00000384  00000+0  11429-3 0  9990",
        "tle_line2": "2 34529  86.3630  30.8090 0006028 146.0687 214.0899 14.40624250882974"
      },
      "geometry": {
        "type": "Point",
        "coordinates": [
          41.37578830035623,
          71.35993731483013
        ]
      }
    },
    {
      "type": "Feature",
      "properties": {
        "norad_id": 34538,
        "name": "IRIDIUM 33 DEB",
        "group": "iridium-33-debris",
        "lat": -5.641487904952698,
        "lon": 0.14742460887345302,
        "alt_km": 744.0822073580557,
        "timestamp": "2025-12-24T05:51:19.994317+00:00",
        "meta_object_name": "IRIDIUM 33 DEB",
        "meta_object_id": "1997-051JF",
        "meta_epoch": "2025-12-23T18:30:56.030112",
        "meta_mean_motion": 14.42708965,
        "meta_eccentricity": 0.00319624,
        "meta_inclination": 86.2765,
        "meta_ra_of_asc_node": 0.7229,
        "meta_arg_of_pericenter": 289.7763,
        "meta_mean_anomaly": 131.869,
        "meta_ephemeris_type": 0,
        "meta_classification_type": "U",
        "meta_norad_cat_id": 34538,
        "meta_element_set_no": 999,
        "meta_rev_at_epoch": 87915,
        "meta_bstar": 0.00089052963,
        "meta_mean_motion_dot": 3e-05,
        "meta_mean_motion_ddot": 0,
        "tle_line1": "1 34538U 97051JF  25357.77148183  .00003000  00000+0  89053-3 0  9996",
        "tle_line2": "2 34538  86.2765   0.7229 0031962 289.7763 131.8690 14.42708965879156"
      },
      "geometry": {
        "type": "Point",
        "coordinates": [
          0.14742460887345302,
          -5.641487904952698
        ]
      }
    }
  ]
}